CCSDS_OMM_VERS = 2.0
CREATION_DATE  = 
ORIGINATOR     = 

OBJECT_NAME    = SL-4 R/B
OBJECT_ID      = 2014-021B
CENTER_NAME    = EARTH
REF_FRAME      = TEME
TIME_SYSTEM    = UTC
MEAN_ELEMENT_THEORY = SGP/SGP4

EPOCH          = 2026-03-01T06:03:31.688640
MEAN_MOTION    = 15.38848335
ECCENTRICITY   = .00982981
INCLINATION    = 51.6077
RA_OF_ASC_NODE = 18.4284
ARG_OF_PERICENTER = 72.2206
MEAN_ANOMALY   = 288.9475

EPHEMERIS_TYPE = 0
CLASSIFICATION_TYPE = U
NORAD_CAT_ID   = 39679
ELEMENT_SET_NO = 999
REV_AT_EPOCH   = 65497
BSTAR          = .38114806E-3
MEAN_MOTION_DOT = .17189E-3
MEAN_MOTION_DDOT = 0

CCSDS_OMM_VERS = 2.0
CREATION_DATE  = 
ORIGINATOR     = 

OBJECT_NAME    = ALOS-2
OBJECT_ID      = 2014-029A
CENTER_NAME    = EARTH
REF_FRAME      = TEME
TIME_SYSTEM    = UTC
MEAN_ELEMENT_THEORY = SGP/SGP4

EPOCH          = 2026-03-01T06:21:17.372160
MEAN_MOTION    = 14.79461931
ECCENTRICITY   = .00014653
INCLINATION    = 97.9199
RA_OF_ASC_NODE = 158.9840
ARG_OF_PERICENTER = 96.2144
MEAN_ANOMALY   = 263.9235

EPHEMERIS_TYPE = 0
CLASSIFICATION_TYPE = U
NORAD_CAT_ID   = 39766
ELEMENT_SET_NO = 999
REV_AT_EPOCH   = 63562
BSTAR          = .19506675E-3
MEAN_MOTION_DOT = .1405E-4
MEAN_MOTION_DDOT = 0

CCSDS_OMM_VERS = 2.0
CREATION_DATE  = 
ORIGINATOR     = 

OBJECT_NAME    = YAOGAN-29
OBJECT_ID      = 2015-069A
CENTER_NAME    = EARTH
REF_FRAME      = TEME
TIME_SYSTEM    = UTC
MEAN_ELEMENT_THEORY = SGP/SGP4

EPOCH          = 2026-03-01T07:01:51.676608
MEAN_MOTION    = 14.82984179
ECCENTRICITY   = .00023732
INCLINATION    = 98.0159
RA_OF_ASC_NODE = 88.7001
ARG_OF_PERICENTER = 50.1043
MEAN_ANOMALY   = 310.0379

EPHEMERIS_TYPE = 0
CLASSIFICATION_TYPE = U
NORAD_CAT_ID   = 41038
ELEMENT_SET_NO = 999
REV_AT_EPOCH   = 55463
BSTAR          = .10036648E-3
MEAN_MOTION_DOT = .761E-5
MEAN_MOTION_DDOT = 0

CCSDS_OMM_VERS = 2.0
CREATION_DATE  = 
ORIGINATOR     = 

OBJECT_NAME    = ASTRO-H (HITOMI)
OBJECT_ID      = 2016-012A
CENTER_NAME    = EARTH
REF_FRAME      = TEME
TIME_SYSTEM    = UTC
MEAN_ELEMENT_THEORY = SGP/SGP4

EPOCH          = 2026-03-01T07:19:08.899104
MEAN_MOTION    = 15.09932285
ECCENTRICITY   = .00100163
INCLINATION    = 31.0001
RA_OF_ASC_NODE = 50.6521
ARG_OF_PERICENTER = 247.8561
MEAN_ANOMALY   = 112.1014

EPHEMERIS_TYPE = 0
CLASSIFICATION_TYPE = U
NORAD_CAT_ID   = 41337
ELEMENT_SET_NO = 999
REV_AT_EPOCH   = 55096
BSTAR          = .23522088E-3
MEAN_MOTION_DOT = .4008E-4
MEAN_MOTION_DDOT = 0

CCSDS_OMM_VERS = 2.0
CREATION_DATE  = 
ORIGINATOR     = 

OBJECT_NAME    = HXMT (HUIYAN)
OBJECT_ID      = 2017-034A
CENTER_NAME    = EARTH
REF_FRAME      = TEME
TIME_SYSTEM    = UTC
MEAN_ELEMENT_THEORY = SGP/SGP4

EPOCH          = 2026-03-01T06:52:04.825344
MEAN_MOTION    = 15.17334917
ECCENTRICITY   = .00319304
INCLINATION    = 43.0149
RA_OF_ASC_NODE = 63.3882
ARG_OF_PERICENTER = 184.0370
MEAN_ANOMALY   = 176.0224

EPHEMERIS_TYPE = 0
CLASSIFICATION_TYPE = U
NORAD_CAT_ID   = 42758
ELEMENT_SET_NO = 999
REV_AT_EPOCH   = 48126
BSTAR          = .31709402E-3
MEAN_MOTION_DOT = .6288E-4
MEAN_MOTION_DDOT = 0

CCSDS_OMM_VERS = 2.0
CREATION_DATE  = 
ORIGINATOR     = 

OBJECT_NAME    = SAOCOM 1A
OBJECT_ID      = 2018-076A
CENTER_NAME    = EARTH
REF_FRAME      = TEME
TIME_SYSTEM    = UTC
MEAN_ELEMENT_THEORY = SGP/SGP4

EPOCH          = 2026-03-01T07:43:15.284352
MEAN_MOTION    = 14.82155879
ECCENTRICITY   = .00012831
INCLINATION    = 97.8888
RA_OF_ASC_NODE = 248.6119
ARG_OF_PERICENTER = 82.2883
MEAN_ANOMALY   = 277.8476

EPHEMERIS_TYPE = 0
CLASSIFICATION_TYPE = U
NORAD_CAT_ID   = 43641
ELEMENT_SET_NO = 999
REV_AT_EPOCH   = 40012
BSTAR          = .3649734E-5
MEAN_MOTION_DOT = -.23E-6
MEAN_MOTION_DDOT = 0

CCSDS_OMM_VERS = 2.0
CREATION_DATE  = 
ORIGINATOR     = 

OBJECT_NAME    = H-2A R/B
OBJECT_ID      = 2018-084L
CENTER_NAME    = EARTH
REF_FRAME      = TEME
TIME_SYSTEM    = UTC
MEAN_ELEMENT_THEORY = SGP/SGP4

EPOCH          = 2026-02-28T12:18:42.747264
MEAN_MOTION    = 15.40886935
ECCENTRICITY   = .00260641
INCLINATION    = 98.8746
RA_OF_ASC_NODE = 274.9427
ARG_OF_PERICENTER = 56.2065
MEAN_ANOMALY   = 304.1653

EPHEMERIS_TYPE = 0
CLASSIFICATION_TYPE = U
NORAD_CAT_ID   = 43682
ELEMENT_SET_NO = 999
REV_AT_EPOCH   = 40436
BSTAR          = .49234149E-3
MEAN_MOTION_DOT = .20388E-3
MEAN_MOTION_DDOT = 0

CCSDS_OMM_VERS = 2.0
CREATION_DATE  = 
ORIGINATOR     = 

OBJECT_NAME    = SAOCOM 1B
OBJECT_ID      = 2020-059A
CENTER_NAME    = EARTH
REF_FRAME      = TEME
TIME_SYSTEM    = UTC
MEAN_ELEMENT_THEORY = SGP/SGP4

EPOCH          = 2026-03-01T06:51:00.542880
MEAN_MOTION    = 14.82162972
ECCENTRICITY   = .00015074
INCLINATION    = 97.8886
RA_OF_ASC_NODE = 247.6740
ARG_OF_PERICENTER = 83.6995
MEAN_ANOMALY   = 276.4390

EPHEMERIS_TYPE = 0
CLASSIFICATION_TYPE = U
NORAD_CAT_ID   = 46265
ELEMENT_SET_NO = 999
REV_AT_EPOCH   = 29750
BSTAR          = .11527064E-3
MEAN_MOTION_DOT = .866E-5
MEAN_MOTION_DDOT = 0

CCSDS_OMM_VERS = 2.0
CREATION_DATE  = 
ORIGINATOR     = 

OBJECT_NAME    = CSS (TIANHE)
OBJECT_ID      = 2021-035A
CENTER_NAME    = EARTH
REF_FRAME      = TEME
TIME_SYSTEM    = UTC
MEAN_ELEMENT_THEORY = SGP/SGP4

EPOCH          = 2026-03-01T07:57:19.177344
MEAN_MOTION    = 15.60273680
ECCENTRICITY   = .00064323
INCLINATION    = 41.4653
RA_OF_ASC_NODE = 259.0034
ARG_OF_PERICENTER = 220.8095
MEAN_ANOMALY   = 139.2263

EPHEMERIS_TYPE = 0
CLASSIFICATION_TYPE = U
NORAD_CAT_ID   = 48274
ELEMENT_SET_NO = 999
REV_AT_EPOCH   = 27630
BSTAR          = .30812686E-3
MEAN_MOTION_DOT = .25666E-3
MEAN_MOTION_DDOT = 0

CCSDS_OMM_VERS = 2.0
CREATION_DATE  = 
ORIGINATOR     = 

OBJECT_NAME    = COSMOS 2550
OBJECT_ID      = 2021-056A
CENTER_NAME    = EARTH
REF_FRAME      = TEME
TIME_SYSTEM    = UTC
MEAN_ELEMENT_THEORY = SGP/SGP4

EPOCH          = 2026-03-01T07:13:41.400768
MEAN_MOTION    = 15.33838814
ECCENTRICITY   = .00083256
INCLINATION    = 67.1423
RA_OF_ASC_NODE = 66.3057
ARG_OF_PERICENTER = 269.3508
MEAN_ANOMALY   = 90.6692

EPHEMERIS_TYPE = 0
CLASSIFICATION_TYPE = U
NORAD_CAT_ID   = 48865
ELEMENT_SET_NO = 999
REV_AT_EPOCH   = 26217
BSTAR          = .479353E-6
MEAN_MOTION_DOT = -.176E-5
MEAN_MOTION_DDOT = 0

CCSDS_OMM_VERS = 2.0
CREATION_DATE  = 
ORIGINATOR     = 

OBJECT_NAME    = CZ-2C R/B
OBJECT_ID      = 2022-058K
CENTER_NAME    = EARTH
REF_FRAME      = TEME
TIME_SYSTEM    = UTC
MEAN_ELEMENT_THEORY = SGP/SGP4

EPOCH          = 2026-03-01T05:12:10.417536
MEAN_MOTION    = 15.53536104
ECCENTRICITY   = .0042141
INCLINATION    = 50.1901
RA_OF_ASC_NODE = 1.8516
ARG_OF_PERICENTER = 164.6567
MEAN_ANOMALY   = 195.5692

EPHEMERIS_TYPE = 0
CLASSIFICATION_TYPE = U
NORAD_CAT_ID   = 52794
ELEMENT_SET_NO = 999
REV_AT_EPOCH   = 20881
BSTAR          = .47381685E-3
MEAN_MOTION_DOT = .31565E-3
MEAN_MOTION_DDOT = 0

CCSDS_OMM_VERS = 2.0
CREATION_DATE  = 
ORIGINATOR     = 

OBJECT_NAME    = CZ-2C R/B
OBJECT_ID      = 2022-132E
CENTER_NAME    = EARTH
REF_FRAME      = TEME
TIME_SYSTEM    = UTC
MEAN_ELEMENT_THEORY = SGP/SGP4

EPOCH          = 2026-02-28T23:25:38.589312
MEAN_MOTION    = 15.60975075
ECCENTRICITY   = .0020635
INCLINATION    = 97.2960
RA_OF_ASC_NODE = 63.0346
ARG_OF_PERICENTER = 118.8971
MEAN_ANOMALY   = 241.4360

EPHEMERIS_TYPE = 0
CLASSIFICATION_TYPE = U
NORAD_CAT_ID   = 54039
ELEMENT_SET_NO = 999
REV_AT_EPOCH   = 18901
BSTAR          = .52163E-3
MEAN_MOTION_DOT = .44232E-3
MEAN_MOTION_DDOT = 0

