SL-4 R/B                
1 39679U 14021B   26060.25245010  .00017189  00000+0  38115-3 0  9991
2 39679  51.6077  18.4284 0098298  72.2206 288.9475 15.38848335654976
ALOS-2                  
1 39766U 14029A   26060.26478440  .00001405  00000+0  19507-3 0  9990
2 39766  97.9199 158.9840 0001465  96.2144 263.9235 14.79461931635621
YAOGAN-29               
1 41038U 15069A   26060.29295922  .00000761  00000+0  10037-3 0  9998
2 41038  98.0159  88.7001 0002373  50.1043 310.0379 14.82984179554631
ASTRO-H (HITOMI)        
1 41337U 16012A   26060.30496411  .00004008  00000+0  23522-3 0  9998
2 41337  31.0001  50.6521 0010016 247.8561 112.1014 15.09932285550964
HXMT (HUIYAN)           
1 42758U 17034A   26060.28616696  .00006288  00000+0  31709-3 0  9995
2 42758  43.0149  63.3882 0031930 184.0370 176.0224 15.17334917481262
SAOCOM 1A               
1 43641U 18076A   26060.32170468 -.00000023  00000+0  36497-5 0  9994
2 43641  97.8888 248.6119 0001283  82.2883 277.8476 14.82155879400122
H-2A R/B                
1 43682U 18084L   26059.51299476  .00020388  00000+0  49234-3 0  9994
2 43682  98.8746 274.9427 0026064  56.2065 304.1653 15.40886935404362
SAOCOM 1B               
1 46265U 20059A   26060.28542295  .00000866  00000+0  11527-3 0  9998
2 46265  97.8886 247.6740 0001507  83.6995 276.4390 14.82162972297500
CSS (TIANHE)            
1 48274U 21035A   26060.33147196  .00025666  00000+0  30813-3 0  9996
2 48274  41.4653 259.0034 0006432 220.8095 139.2263 15.60273680276306
COSMOS 2550             
1 48865U 21056A   26060.30117362 -.00000176  00000+0  47935-6 0  9990
2 48865  67.1423  66.3057 0008325 269.3508  90.6692 15.33838814262178
CZ-2C R/B               
1 52794U 22058K   26060.21678724  .00031565  00000+0  47382-3 0  9991
2 52794  50.1901   1.8516 0042141 164.6567 195.5692 15.53536104208812
CZ-2C R/B               
1 54039U 22132E   26059.97614108  .00044232  00000+0  52163-3 0  9993
2 54039  97.2960  63.0346 0020635 118.8971 241.4360 15.60975075189013
